THORAD AGENA D DEB      
1 04735U 70025CJ  26064.24995979  .06791631  13744+0  14291-1 0  9994
2 04735  99.5846  76.8615 0011376 181.1558 178.9691 16.05906055880624
COSMOS 886 DEB          
1 14501U 76126BN  26064.43185505  .08967905  67923-5  47049-2 0  9994
2 14501  65.5928 307.6976 0017078 206.5599 153.4711 16.19434659149997
COSMOS 1812             
1 17295U 87003A   26065.13056457  .12040831 -12829-5  14059-3 0  9991
2 17295  82.4628 199.5909 0011771 272.0058  87.9898 16.49575463143916
CZ-4 DEB                
1 20898U 90081BJ  26065.84983954  .10467028  28365-5  61840-2 0  9992
2 20898  98.0719 155.7725 0015132 295.1511  64.8204 16.18322014867701
FENGYUN 1C DEB          
1 30490U 99025AHC 26065.07799252  .03007822  99151-2  71770-2 0  9994
2 30490  98.3260 214.1666 0022320 276.5224  83.3509 15.98614735  7755
CZ-2D DEB               
1 31409U 05024J   26060.90543068  .00239460  23346-4  72484-3 0  9991
2 31409  97.1482 103.0739 0004089 145.2826 214.8716 15.92111318117181
ZIYUAN 3-01 (ZY 3-01)   
1 38046U 12001A   26065.87615731  .00512079  11712-3  98494-3 0  9998
2 38046  97.1565 140.6350 0002888 246.4289 113.6687 16.00491799788254
HUMSAT-D                
1 39433U 13066T   26065.49762236  .01554058  16472-2  20051-2 0  9996
2 39433  97.4816  78.4106 0007022 171.4042 188.7362 16.07549904670952
H-2A DEB                
1 43675U 18084E   26065.54747814  .02219868  48115-2  27000-2 0  9993
2 43675  98.0000 281.9814 0003780 291.2449  68.8428 16.09347450402625
SPACEBEE-7              
1 43816U 18099BL  26065.79606148  .03613902  24477-5  19778-2 0  9996
2 43816  97.4307 152.6462 0009897 277.3214  82.6949 16.19527511398757
STARLINK-1112           
1 44925U 20001M   26065.62269311  .00942220  52662-3  94400-3 0  9999
2 44925  53.0314 256.8656 0006033 286.5823  73.4547 16.10547058340831
STARLINK-1298           
1 45413U 20019BF  26065.91668981  .00279759  41530-4  72702-3 0  9993
2 45413  53.0348  68.1092 0006697  10.0715 337.0766 15.94536946  6000
STARLINK-1398           
1 45699U 20035AU  26065.83334490  .00260006  36899-4  72344-3 0  9992
2 45699  53.0359 313.8379 0003899 165.1566 265.1285 15.93297207  5934
STARLINK-1484           
1 45756U 20038AC  26065.83775096  .00449064  98362-4  83957-3 0  9998
2 45756  52.9981  71.3542 0006567  52.6869 307.4757 16.00394115318246
STARLINK-1587           
1 46157U 20057AS  26065.83334490  .00490871  10685-3  13266-2 0  9992
2 46157  53.0318 230.9633 0004268 284.7322 256.4845 15.93744162  6012
